[{"OBJECT_NAME":"OBJECT V","OBJECT_ID":"2023-085V","EPOCH":"2026-03-09T21:44:00.165408","MEAN_MOTION":15.30745852,"ECCENTRICITY":0.00069081,"INCLINATION":97.4843,"RA_OF_ASC_NODE":179.3833,"ARG_OF_PERICENTER":71.0503,"MEAN_ANOMALY":289.1485,"EPHEMERIS_TYPE":0,"CLASSIFICATION_TYPE":"U","NORAD_CAT_ID":57023,"ELEMENT_SET_NO":999,"REV_AT_EPOCH":15149,"BSTAR":0.00067780507,"MEAN_MOTION_DOT":0.00020109,"MEAN_MOTION_DDOT":0},{"OBJECT_NAME":"STARLINK-35070","OBJECT_ID":"2025-212E","EPOCH":"2026-03-09T22:10:12.304992","MEAN_MOTION":15.30210199,"ECCENTRICITY":0.0001016,"INCLINATION":53.1595,"RA_OF_ASC_NODE":344.2864,"ARG_OF_PERICENTER":88.0712,"MEAN_ANOMALY":272.0405,"EPHEMERIS_TYPE":0,"CLASSIFICATION_TYPE":"U","NORAD_CAT_ID":65680,"ELEMENT_SET_NO":999,"REV_AT_EPOCH":2728,"BSTAR":0.00085576135,"MEAN_MOTION_DOT":0.0002508,"MEAN_MOTION_DDOT":0}]
